{"fetched_at":"2026-07-11T06:35:46.123Z","source":"https://celestrak.org/NORAD/elements/gp.php?NAME=SENTINEL&FORMAT=JSON","constellation":"sentinel-3","records":[{"OBJECT_NAME":"SENTINEL-3A","OBJECT_ID":"2016-011A","EPOCH":"2026-07-10T20:24:28.683072","CLASSIFICATION_TYPE":"U","MEAN_MOTION":14.26738982,"ECCENTRICITY":0.0001393,"INCLINATION":98.6239,"RA_OF_ASC_NODE":258.8929,"ARG_OF_PERICENTER":91.4289,"MEAN_ANOMALY":268.7051,"EPHEMERIS_TYPE":0,"NORAD_CAT_ID":41335,"ELEMENT_SET_NO":999,"REV_AT_EPOCH":54143,"BSTAR":0.000033084,"MEAN_MOTION_DOT":3.6e-7,"MEAN_MOTION_DDOT":0},{"OBJECT_NAME":"SENTINEL-3B","OBJECT_ID":"2018-039A","EPOCH":"2026-07-10T14:42:49.019040","CLASSIFICATION_TYPE":"U","MEAN_MOTION":14.26741218,"ECCENTRICITY":0.0001044,"INCLINATION":98.6238,"RA_OF_ASC_NODE":258.8081,"ARG_OF_PERICENTER":120.426,"MEAN_ANOMALY":239.7024,"EPHEMERIS_TYPE":0,"NORAD_CAT_ID":43437,"ELEMENT_SET_NO":999,"REV_AT_EPOCH":42746,"BSTAR":0.000035163,"MEAN_MOTION_DOT":4.1e-7,"MEAN_MOTION_DDOT":0}]}
