SENTINEL-3A             
1 41335U 16011A   26191.85033198  .00000036  00000+0  33084-4 0  9991
2 41335  98.6239 258.8929 0001393  91.4289 268.7051 14.26738982541433
SENTINEL-3B             
1 43437U 18039A   26191.61306735  .00000041  00000+0  35163-4 0  9998
2 43437  98.6238 258.8081 0001044 120.4260 239.7024 14.26741218427461
